stk.v.4.3 

BEGIN Ephemeris 
 
NumberOfEphemerisPoints		146 
ScenarioEpoch	    2 Jan 2020 12:59:13.461796045 
InterpolationMethod		Lagrange 
InterpolationOrder		5 
CentralBody				Earth 
CoordinateSystem			TEME 
CoordinateSystemEpoch	  2 Jan 2020 12:59:13.461796045 
DistanceUnit			Kilometers 
 
EphemerisTimePosVel 
 
       0.00000000    7115.08249810    -790.99061538       0.04064986  0.042402305  0.466920000  7.448682041
 END Ephemeris 
